EUTELSAT QUANTUM        
1 49056U 21069B   25361.92753072  .00000148  00000+0  00000+0 0  9995
2 49056   0.0166  38.3589 0003689 245.1623 194.7410  1.00271885 16212
EUTELSAT KONNECT VHTS   
1 53765U 22110A   25360.97162558  .00000039  00000+0  00000+0 0  9991
2 53765   0.0593  98.4997 0002788 152.3600 197.3421  1.00268307  5103
EUTELSAT HOTBIRD 13F    
1 54048U 22134A   25360.94905771  .00000109  00000+0  00000+0 0  9999
2 54048   0.0512 291.2358 0002367  65.5103  93.5854  1.00271009 11656
EUTELSAT HOTBIRD 13G    
1 54225U 22146A   25360.94905771  .00000107  00000+0  00000+0 0  9997
2 54225   0.0501 221.1292 0002214 348.4298 240.7501  1.00258057  5734
EUTELSAT 10B            
1 54259U 22157A   25360.97309892  .00000090  00000+0  00000+0 0  9992
2 54259   0.0595  95.7073 0000387 337.8466  22.4880  1.00269780 11304
EUTELSAT 36D            
1 59346U 24059A   25361.93308564  .00000000  00000+0  00000+0 0  9990
2 59346   0.0217  24.9888 0000440 288.2414 155.2226  1.00271148  6435
